[{"OBJECT_NAME":"FENGYUN 1C","OBJECT_ID":"1999-025A","EPOCH":"2026-03-05T04:02:35.420928","MEAN_MOTION":14.266272,"ECCENTRICITY":0.00118709,"INCLINATION":98.8705,"RA_OF_ASC_NODE":136.3246,"ARG_OF_PERICENTER":181.139,"MEAN_ANOMALY":178.9764,"EPHEMERIS_TYPE":0,"CLASSIFICATION_TYPE":"U","NORAD_CAT_ID":25730,"ELEMENT_SET_NO":999,"REV_AT_EPOCH":38312,"BSTAR":0.0012017121,"MEAN_MOTION_DOT":2.86e-5,"MEAN_MOTION_DDOT":0},{"OBJECT_NAME":"FENGYUN 1C DEB","OBJECT_ID":"1999-025X","EPOCH":"2026-03-05T02:15:44.222112","MEAN_MOTION":12.96600369,"ECCENTRICITY":0.05638735,"INCLINATION":99.2151,"RA_OF_ASC_NODE":112.6284,"ARG_OF_PERICENTER":12.0816,"MEAN_ANOMALY":7.8134,"EPHEMERIS_TYPE":0,"CLASSIFICATION_TYPE":"U","NORAD_CAT_ID":29733,"ELEMENT_SET_NO":999,"REV_AT_EPOCH":90187,"BSTAR":0.0002397015,"MEAN_MOTION_DOT":1.08e-6,"MEAN_MOTION_DDOT":0},{"OBJECT_NAME":"FENGYUN 1C DEB","OBJECT_ID":"1999-025Y","EPOCH":"2026-03-05T06:05:48.985152","MEAN_MOTION":12.91553687,"ECCENTRICITY":0.06071931,"INCLINATION":99.1712,"RA_OF_ASC_NODE":345.6835,"ARG_OF_PERICENTER":182.6823,"MEAN_ANOMALY":334.28,"EPHEMERIS_TYPE":0,"CLASSIFICATION_TYPE":"U","NORAD_CAT_ID":29734,"ELEMENT_SET_NO":999,"REV_AT_EPOCH":89613,"BSTAR":0.0018975242,"MEAN_MOTION_DOT":1.127e-5,"MEAN_MOTION_DDOT":0},{"OBJECT_NAME":"FENGYUN 1C DEB","OBJECT_ID":"1999-025Z","EPOCH":"2026-03-05T04:31:03.451296","MEAN_MOTION":12.75478187,"ECCENTRICITY":0.07059064,"INCLINATION":99.3902,"RA_OF_ASC_NODE":330.4164,"ARG_OF_PERICENTER":352.5145,"MEAN_ANOMALY":6.584,"EPHEMERIS_TYPE":0,"CLASSIFICATION_TYPE":"U","NORAD_CAT_ID":29735,"ELEMENT_SET_NO":999,"REV_AT_EPOCH":88466,"BSTAR":0.0049254587,"MEAN_MOTION_DOT":2.932e-5,"MEAN_MOTION_DDOT":0},{"OBJECT_NAME":"FENGYUN 1C DEB","OBJECT_ID":"1999-025AA","EPOCH":"2026-03-04T09:58:05.331072","MEAN_MOTION":12.57621126,"ECCENTRICITY":0.07206618,"INCLINATION":99.4115,"RA_OF_ASC_NODE":232.1988,"ARG_OF_PERICENTER":23.2729,"MEAN_ANOMALY":5.662,"EPHEMERIS_TYPE":0,"CLASSIFICATION_TYPE":"U","NORAD_CAT_ID":29736,"ELEMENT_SET_NO":999,"REV_AT_EPOCH":87571,"BSTAR":0.0016259884,"MEAN_MOTION_DOT":7.03e-6,"MEAN_MOTION_DDOT":0},{"OBJECT_NAME":"FENGYUN 1C DEB","OBJECT_ID":"1999-025AB","EPOCH":"2026-03-05T07:26:55.040064","MEAN_MOTION":12.66050105,"ECCENTRICITY":0.07020138,"INCLINATION":99.5817,"RA_OF_ASC_NODE":10.8011,"ARG_OF_PERICENTER":320.2022,"MEAN_ANOMALY":199.1482,"EPHEMERIS_TYPE":0,"CLASSIFICATION_TYPE":"U","NORAD_CAT_ID":29737,"ELEMENT_SET_NO":999,"REV_AT_EPOCH":87913,"BSTAR":0.0015541424,"MEAN_MOTION_DOT":7.38e-6,"MEAN_MOTION_DDOT":0},{"OBJECT_NAME":"FENGYUN 1C DEB","OBJECT_ID":"1999-025AC","EPOCH":"2026-03-04T09:04:51.934368","MEAN_MOTION":12.61700771,"ECCENTRICITY":0.08597389,"INCLINATION":99.4208,"RA_OF_ASC_NODE":220.534,"ARG_OF_PERICENTER":117.6394,"MEAN_ANOMALY":251.4628,"EPHEMERIS_TYPE":0,"CLASSIFICATION_TYPE":"U","NORAD_CAT_ID":29738,"ELEMENT_SET_NO":999,"REV_AT_EPOCH":87246,"BSTAR":0.010322263,"MEAN_MOTION_DOT":7.82e-5,"MEAN_MOTION_DDOT":0},{"OBJECT_NAME":"FENGYUN 1C DEB","OBJECT_ID":"1999-025AE","EPOCH":"2026-03-05T01:19:33.964608","MEAN_MOTION":12.08441309,"ECCENTRICITY":0.09726299,"INCLINATION":99.0521,"RA_OF_ASC_NODE":257.1717,"ARG_OF_PERICENTER":34.1056,"MEAN_ANOMALY":331.8772,"EPHEMERIS_TYPE":0,"CLASSIFICATION_TYPE":"U","NORAD_CAT_ID":29740,"ELEMENT_SET_NO":999,"REV_AT_EPOCH":83929,"BSTAR":0.0020369807,"MEAN_MOTION_DOT":7.58e-6,"MEAN_MOTION_DDOT":0},{"OBJECT_NAME":"FENGYUN 1C DEB","OBJECT_ID":"1999-025AF","EPOCH":"2026-03-02T14:01:25.999680","MEAN_MOTION":12.0129044,"ECCENTRICITY":0.102773,"INCLINATION":99.1675,"RA_OF_ASC_NODE":278.2724,"ARG_OF_PERICENTER":267.3298,"MEAN_ANOMALY":105.7148,"EPHEMERIS_TYPE":0,"CLASSIFICATION_TYPE":"U","NORAD_CAT_ID":29741,"ELEMENT_SET_NO":999,"REV_AT_EPOCH":53142,"BSTAR":0.0048162,"MEAN_MOTION_DOT":1.889e-5,"MEAN_MOTION_DDOT":0},{"OBJECT_NAME":"FENGYUN 1C DEB","OBJECT_ID":"1999-025AN","EPOCH":"2026-03-05T05:12:27.957600","MEAN_MOTION":11.9010042,"ECCENTRICITY":0.06564761,"INCLINATION":99.7675,"RA_OF_ASC_NODE":338.8348,"ARG_OF_PERICENTER":231.0856,"MEAN_ANOMALY":122.9883,"EPHEMERIS_TYPE":0,"CLASSIFICATION_TYPE":"U","NORAD_CAT_ID":29748,"ELEMENT_SET_NO":999,"REV_AT_EPOCH":79715,"BSTAR":-0.091536889,"MEAN_MOTION_DOT":-0.00011977,"MEAN_MOTION_DDOT":0},{"OBJECT_NAME":"FENGYUN 1C DEB","OBJECT_ID":"1999-025AQ","EPOCH":"2026-03-05T07:36:43.229664","MEAN_MOTION":14.09729678,"ECCENTRICITY":0.00369038,"INCLINATION":98.7457,"RA_OF_ASC_NODE":96.1332,"ARG_OF_PERICENTER":68.3066,"MEAN_ANOMALY":354.3742,"EPHEMERIS_TYPE":0,"CLASSIFICATION_TYPE":"U","NORAD_CAT_ID":29750,"ELEMENT_SET_NO":999,"REV_AT_EPOCH":98237,"BSTAR":0.000354152,"MEAN_MOTION_DOT":5.83e-6,"MEAN_MOTION_DDOT":0},{"OBJECT_NAME":"FENGYUN 1C DEB","OBJECT_ID":"1999-025AR","EPOCH":"2026-03-05T00:51:59.247360","MEAN_MOTION":14.23707184,"ECCENTRICITY":0.00879415,"INCLINATION":98.5329,"RA_OF_ASC_NODE":94.507,"ARG_OF_PERICENTER":259.6902,"MEAN_ANOMALY":129.2074,"EPHEMERIS_TYPE":0,"CLASSIFICATION_TYPE":"U","NORAD_CAT_ID":29751,"ELEMENT_SET_NO":999,"REV_AT_EPOCH":99244,"BSTAR":0.00018457713,"MEAN_MOTION_DOT":3.95e-6,"MEAN_MOTION_DDOT":0},{"OBJECT_NAME":"FENGYUN 1C DEB","OBJECT_ID":"1999-025AU","EPOCH":"2026-03-05T06:14:41.210016","MEAN_MOTION":14.19505172,"ECCENTRICITY":0.00345354,"INCLINATION":98.8811,"RA_OF_ASC_NODE":172.2205,"ARG_OF_PERICENTER":6.382,"MEAN_ANOMALY":22.3663,"EPHEMERIS_TYPE":0,"CLASSIFICATION_TYPE":"U","NORAD_CAT_ID":29754,"ELEMENT_SET_NO":999,"REV_AT_EPOCH":98525,"BSTAR":0.00093286249,"MEAN_MOTION_DOT":1.932e-5,"MEAN_MOTION_DDOT":0},{"OBJECT_NAME":"FENGYUN 1C DEB","OBJECT_ID":"1999-025AY","EPOCH":"2026-03-05T07:15:04.979808","MEAN_MOTION":14.42572347,"ECCENTRICITY":0.0020596,"INCLINATION":98.8545,"RA_OF_ASC_NODE":188.0507,"ARG_OF_PERICENTER":74.6255,"MEAN_ANOMALY":315.2011,"EPHEMERIS_TYPE":0,"CLASSIFICATION_TYPE":"U","NORAD_CAT_ID":29758,"ELEMENT_SET_NO":999,"REV_AT_EPOCH":98861,"BSTAR":0.0028021042,"MEAN_MOTION_DOT":9.289e-5,"MEAN_MOTION_DDOT":0},{"OBJECT_NAME":"FENGYUN 1C DEB","OBJECT_ID":"1999-025BA","EPOCH":"2026-03-04T23:13:00.675552","MEAN_MOTION":14.08362098,"ECCENTRICITY":0.01296412,"INCLINATION":98.7658,"RA_OF_ASC_NODE":68.8013,"ARG_OF_PERICENTER":302.1721,"MEAN_ANOMALY":56.6928,"EPHEMERIS_TYPE":0,"CLASSIFICATION_TYPE":"U","NORAD_CAT_ID":29760,"ELEMENT_SET_NO":999,"REV_AT_EPOCH":98250,"BSTAR":0.00020456583,"MEAN_MOTION_DOT":3.34e-6,"MEAN_MOTION_DDOT":0},{"OBJECT_NAME":"FENGYUN 1C DEB","OBJECT_ID":"1999-025BC","EPOCH":"2026-03-05T04:56:02.671872","MEAN_MOTION":14.22716725,"ECCENTRICITY":0.02051307,"INCLINATION":98.5902,"RA_OF_ASC_NODE":49.944,"ARG_OF_PERICENTER":95.5995,"MEAN_ANOMALY":285.7153,"EPHEMERIS_TYPE":0,"CLASSIFICATION_TYPE":"U","NORAD_CAT_ID":29762,"ELEMENT_SET_NO":999,"REV_AT_EPOCH":99121,"BSTAR":0.00029614761,"MEAN_MOTION_DOT":7.79e-6,"MEAN_MOTION_DDOT":0}]
