FENGYUN 1C              
1 25730U 99025A   26064.16846552  .00002860  00000+0  12017-2 0  9995
2 25730  98.8705 136.3246 0011870 181.1390 178.9764 14.26627200383120
FENGYUN 1C DEB          
1 29733U 99025X   26064.09426183  .00000108  00000+0  23970-3 0  9992
2 29733  99.2151 112.6284 0563873  12.0816   7.8134 12.96600369901877
FENGYUN 1C DEB          
1 29734U 99025Y   26064.25403918  .00001127  00000+0  18975-2 0  9992
2 29734  99.1712 345.6835 0607193 182.6823 334.2800 12.91553687896130
FENGYUN 1C DEB          
1 29735U 99025Z   26064.18823439  .00002932  00000+0  49255-2 0  9999
2 29735  99.3902 330.4164 0705906 352.5145   6.5840 12.75478187884668
FENGYUN 1C DEB          
1 29736U 99025AA  26063.41533948  .00000703  00000+0  16260-2 0  9992
2 29736  99.4115 232.1988 0720661  23.2729   5.6620 12.57621126875718
FENGYUN 1C DEB          
1 29737U 99025AB  26064.31035926  .00000738  00000+0  15541-2 0  9995
2 29737  99.5817  10.8011 0702013 320.2022 199.1482 12.66050105879132
FENGYUN 1C DEB          
1 29738U 99025AC  26063.37837887  .00007820  00000+0  10322-1 0  9997
2 29738  99.4208 220.5340 0859738 117.6394 251.4628 12.61700771872467
FENGYUN 1C DEB          
1 29740U 99025AE  26064.05525422  .00000758  00000+0  20370-2 0  9993
2 29740  99.0521 257.1717 0972629  34.1056 331.8772 12.08441309839298
FENGYUN 1C DEB          
1 29741U 99025AF  26061.58432870  .00001889  00000+0  48162-2 0  9998
2 29741  99.1675 278.2724 1027730 267.3298 105.7148 12.01290440531425
FENGYUN 1C DEB          
1 29748U 99025AN  26064.21699025 -.00011977  00000+0 -91537-1 0  9999
2 29748  99.7675 338.8348 0656476 231.0856 122.9883 11.90100420797151
FENGYUN 1C DEB          
1 29750U 99025AQ  26064.31716701  .00000583  00000+0  35415-3 0  9998
2 29750  98.7457  96.1332 0036903  68.3066 354.3742 14.09729678982379
FENGYUN 1C DEB          
1 29751U 99025AR  26064.03610240  .00000395  00000+0  18458-3 0  9998
2 29751  98.5329  94.5070 0087941 259.6902 129.2074 14.23707184992449
FENGYUN 1C DEB          
1 29754U 99025AU  26064.26019919  .00001932  00000+0  93286-3 0  9992
2 29754  98.8811 172.2205 0034535   6.3820  22.3663 14.19505172985258
FENGYUN 1C DEB          
1 29758U 99025AY  26064.30214097  .00009289  00000+0  28021-2 0  9992
2 29758  98.8545 188.0507 0020596  74.6255 315.2011 14.42572347988616
FENGYUN 1C DEB          
1 29760U 99025BA  26063.96736893  .00000334  00000+0  20457-3 0  9997
2 29760  98.7658  68.8013 0129641 302.1721  56.6928 14.08362098982505
FENGYUN 1C DEB          
1 29762U 99025BC  26064.20558648  .00000779  00000+0  29615-3 0  9995
2 29762  98.5902  49.9440 0205130  95.5995 285.7153 14.22716725991214
